[{"OBJECT_NAME":"STARLINK-32835","OBJECT_ID":"2025-034Y","EPOCH":"2026-03-09T22:53:18.140352","MEAN_MOTION":15.30198308,"ECCENTRICITY":0.00011662,"INCLINATION":53.1595,"RA_OF_ASC_NODE":269.9389,"ARG_OF_PERICENTER":88.4751,"MEAN_ANOMALY":271.6383,"EPHEMERIS_TYPE":0,"CLASSIFICATION_TYPE":"U","NORAD_CAT_ID":63051,"ELEMENT_SET_NO":999,"REV_AT_EPOCH":5894,"BSTAR":0.001375326,"MEAN_MOTION_DOT":0.00040595,"MEAN_MOTION_DDOT":0},{"OBJECT_NAME":"COSMOS 2251 DEB","OBJECT_ID":"1993-036N","EPOCH":"2026-03-09T20:39:34.848000","MEAN_MOTION":15.17003756,"ECCENTRICITY":0.00564486,"INCLINATION":74.0035,"RA_OF_ASC_NODE":352.1163,"ARG_OF_PERICENTER":60.1769,"MEAN_ANOMALY":300.5022,"EPHEMERIS_TYPE":0,"CLASSIFICATION_TYPE":"U","NORAD_CAT_ID":33765,"ELEMENT_SET_NO":999,"REV_AT_EPOCH":90936,"BSTAR":0.0026022202,"MEAN_MOTION_DOT":0.00053945,"MEAN_MOTION_DDOT":0}]
